[{"OBJECT_NAME":"STARLINK-6036","OBJECT_ID":"2023-078AK","EPOCH":"2026-03-09T22:06:21.683520","MEAN_MOTION":14.98330343,"ECCENTRICITY":0.00027777,"INCLINATION":70.0007,"RA_OF_ASC_NODE":343.9244,"ARG_OF_PERICENTER":269.757,"MEAN_ANOMALY":90.3271,"EPHEMERIS_TYPE":0,"CLASSIFICATION_TYPE":"U","NORAD_CAT_ID":56800,"ELEMENT_SET_NO":999,"REV_AT_EPOCH":15271,"BSTAR":-3.3799051e-5,"MEAN_MOTION_DOT":-4.96e-6,"MEAN_MOTION_DDOT":0},{"OBJECT_NAME":"FENGYUN 1C DEB","OBJECT_ID":"1999-025AMM","EPOCH":"2026-03-09T23:05:15.567936","MEAN_MOTION":14.58578294,"ECCENTRICITY":0.02096652,"INCLINATION":98.0952,"RA_OF_ASC_NODE":81.878,"ARG_OF_PERICENTER":224.9272,"MEAN_ANOMALY":164.1003,"EPHEMERIS_TYPE":0,"CLASSIFICATION_TYPE":"U","NORAD_CAT_ID":30606,"ELEMENT_SET_NO":999,"REV_AT_EPOCH":514,"BSTAR":0.00059655112,"MEAN_MOTION_DOT":3.71e-5,"MEAN_MOTION_DDOT":0}]
